{"type": "FeatureCollection", "features": [ {"type": "Feature", "properties": {"norad_id": 30663, "name": "FENGYUN 1C DEB", "group": "fengyun-1c-debris", "lat": 15.296945727240697, "lon": -93.74079557461673, "alt_km": 1287.6391669378936, "timestamp": "2025-12-18T10:51:26.084737+00:00", "meta": {"OBJECT_NAME": "FENGYUN 1C DEB", "OBJECT_ID": "1999-025APV", "EPOCH": "2025-12-17T05:44:16.643328", "MEAN_MOTION": 13.23155811, "ECCENTRICITY": 0.06484684, "INCLINATION": 99.3033, "RA_OF_ASC_NODE": 267.7385, "ARG_OF_PERICENTER": 125.6375, "MEAN_ANOMALY": 240.6929, "EPHEMERIS_TYPE": 0, "CLASSIFICATION_TYPE": "U", "NORAD_CAT_ID": 30663, "ELEMENT_SET_NO": 999, "REV_AT_EPOCH": 89107, "BSTAR": 0.001796008, "MEAN_MOTION_DOT": 2.316e-05, "MEAN_MOTION_DDOT": 0}, "tle": {"line1": "1 30663U 99025APV 25351.23908152  .00002316  00000+0  17960-2 0  9995", "line2": "2 30663  99.3033 267.7385 0648468 125.6375 240.6929 13.23155811891077"}}, "geometry": {"type": "Point", "coordinates": [-93.74079557461673, 15.296945727240697]}}, {"type": "Feature", "properties": {"norad_id": 30665, "name": "FENGYUN 1C DEB", "group": "fengyun-1c-debris", "lat": -77.11554607638462, "lon": 99.04553093654499, "alt_km": 845.3996461996039, "timestamp": "2025-12-18T10:51:26.084747+00:00", "meta": {"OBJECT_NAME": "FENGYUN 1C DEB", "OBJECT_ID": "1999-025APX", "EPOCH": "2025-12-17T21:59:41.148672", "MEAN_MOTION": 14.12369633, "ECCENTRICITY": 0.00676021, "INCLINATION": 99.2077, "RA_OF_ASC_NODE": 323.6576, "ARG_OF_PERICENTER": 187.6799, "MEAN_ANOMALY": 229.0199, "EPHEMERIS_TYPE": 0, "CLASSIFICATION_TYPE": "U", "NORAD_CAT_ID": 30665, "ELEMENT_SET_NO": 999, "REV_AT_EPOCH": 96043, "BSTAR": 0.0011508822, "MEAN_MOTION_DOT": 2.121e-05, "MEAN_MOTION_DDOT": 0}, "tle": {"line1": "1 30665U 99025APX 25351.91644848  .00002121  00000+0  11509-2 0  9998", "line2": "2 30665  99.2077 323.6576 0067602 187.6799 229.0199 14.12369633960438"}}, "geometry": {"type": "Point", "coordinates": [99.04553093654499, -77.11554607638462]}}, {"type": "Feature", "properties": {"norad_id": 30666, "name": "FENGYUN 1C DEB", "group": "fengyun-1c-debris", "lat": -49.056881372429764, "lon": 145.57737965322414, "alt_km": 900.3002904074601, "timestamp": "2025-12-18T10:51:26.084758+00:00", "meta": {"OBJECT_NAME": "FENGYUN 1C DEB", "OBJECT_ID": "1999-025APY", "EPOCH": "2025-12-17T22:02:45.007872", "MEAN_MOTION": 14.02559072, "ECCENTRICITY": 0.00613254, "INCLINATION": 98.822, "RA_OF_ASC_NODE": 335.3725, "ARG_OF_PERICENTER": 129.8637, "MEAN_ANOMALY": 285.3955, "EPHEMERIS_TYPE": 0, "CLASSIFICATION_TYPE": "U", "NORAD_CAT_ID": 30666, "ELEMENT_SET_NO": 999, "REV_AT_EPOCH": 96183, "BSTAR": 0.0002312231, "MEAN_MOTION_DOT": 3.2e-06, "MEAN_MOTION_DDOT": 0}, "tle": {"line1": "1 30666U 99025APY 25351.91857648  .00000320  00000+0  23122-3 0  9997", "line2": "2 30666  98.8220 335.3725 0061325 129.8637 285.3955 14.02559072961832"}}, "geometry": {"type": "Point", "coordinates": [145.57737965322414, -49.056881372429764]}}, {"type": "Feature", "properties": {"norad_id": 30668, "name": "FENGYUN 1C DEB", "group": "fengyun-1c-debris", "lat": -7.6383750804777435, "lon": 66.85281794564531, "alt_km": 885.4162587352939, "timestamp": "2025-12-18T10:51:26.084768+00:00", "meta": {"OBJECT_NAME": "FENGYUN 1C DEB", "OBJECT_ID": "1999-025AQA", "EPOCH": "2025-12-17T16:54:50.084640", "MEAN_MOTION": 14.12359335, "ECCENTRICITY": 0.00794944, "INCLINATION": 99.1312, "RA_OF_ASC_NODE": 64.8554, "ARG_OF_PERICENTER": 232.2931, "MEAN_ANOMALY": 280.0435, "EPHEMERIS_TYPE": 0, "CLASSIFICATION_TYPE": "U", "NORAD_CAT_ID": 30668, "ELEMENT_SET_NO": 999, "REV_AT_EPOCH": 96125, "BSTAR": 0.0012893025, "MEAN_MOTION_DOT": 2.402e-05, "MEAN_MOTION_DDOT": 0}, "tle": {"line1": "1 30668U 99025AQA 25351.70474635  .00002402  00000+0  12893-2 0  9992", "line2": "2 30668  99.1312  64.8554 0079494 232.2931 280.0435 14.12359335961258"}}, "geometry": {"type": "Point", "coordinates": [66.85281794564531, -7.6383750804777435]}}, {"type": "Feature", "properties": {"norad_id": 30669, "name": "FENGYUN 1C DEB", "group": "fengyun-1c-debris", "lat": -30.730548535071044, "lon": 103.6462456611591, "alt_km": 835.2162088411624, "timestamp": "2025-12-18T10:51:26.084778+00:00", "meta": {"OBJECT_NAME": "FENGYUN 1C DEB", "OBJECT_ID": "1999-025AQB", "EPOCH": "2025-12-17T18:35:54.587904", "MEAN_MOTION": 14.02743579, "ECCENTRICITY": 0.011797, "INCLINATION": 98.6342, "RA_OF_ASC_NODE": 288.1861, "ARG_OF_PERICENTER": 162.3372, "MEAN_ANOMALY": 228.5109, "EPHEMERIS_TYPE": 0, "CLASSIFICATION_TYPE": "U", "NORAD_CAT_ID": 30669, "ELEMENT_SET_NO": 999, "REV_AT_EPOCH": 95524, "BSTAR": 0.0010723484, "MEAN_MOTION_DOT": 1.722e-05, "MEAN_MOTION_DDOT": 0}, "tle": {"line1": "1 30669U 99025AQB 25351.77493736  .00001722  00000+0  10723-2 0  9997", "line2": "2 30669  98.6342 288.1861 0117970 162.3372 228.5109 14.02743579955245"}}, "geometry": {"type": "Point", "coordinates": [103.6462456611591, -30.730548535071044]}}, {"type": "Feature", "properties": {"norad_id": 30670, "name": "FENGYUN 1C DEB", "group": "fengyun-1c-debris", "lat": 41.56002830930626, "lon": 28.94131263309644, "alt_km": 807.9874317458689, "timestamp": "2025-12-18T10:51:26.084788+00:00", "meta": {"OBJECT_NAME": "FENGYUN 1C DEB", "OBJECT_ID": "1999-025AQC", "EPOCH": "2025-12-17T19:40:27.998400", "MEAN_MOTION": 14.15819321, "ECCENTRICITY": 0.00397632, "INCLINATION": 98.7101, "RA_OF_ASC_NODE": 36.1345, "ARG_OF_PERICENTER": 55.4456, "MEAN_ANOMALY": 4.2756, "EPHEMERIS_TYPE": 0, "CLASSIFICATION_TYPE": "U", "NORAD_CAT_ID": 30670, "ELEMENT_SET_NO": 999, "REV_AT_EPOCH": 97224, "BSTAR": 9.2578993e-05, "MEAN_MOTION_DOT": 1.4e-06, "MEAN_MOTION_DDOT": 0}, "tle": {"line1": "1 30670U 99025AQC 25351.81976850  .00000140  00000+0  92579-4 0  9991", "line2": "2 30670  98.7101  36.1345 0039763  55.4456   4.2756 14.15819321972246"}}, "geometry": {"type": "Point", "coordinates": [28.94131263309644, 41.56002830930626]}}, {"type": "Feature", "properties": {"norad_id": 30671, "name": "FENGYUN 1C DEB", "group": "fengyun-1c-debris", "lat": -52.27632997371535, "lon": 69.34856817695986, "alt_km": 885.2704863318877, "timestamp": "2025-12-18T10:51:26.084798+00:00", "meta": {"OBJECT_NAME": "FENGYUN 1C DEB", "OBJECT_ID": "1999-025AQD", "EPOCH": "2025-12-17T11:04:57.036864", "MEAN_MOTION": 13.95475762, "ECCENTRICITY": 0.01258502, "INCLINATION": 99.2523, "RA_OF_ASC_NODE": 56.1898, "ARG_OF_PERICENTER": 20.3538, "MEAN_ANOMALY": 353.9446, "EPHEMERIS_TYPE": 0, "CLASSIFICATION_TYPE": "U", "NORAD_CAT_ID": 30671, "ELEMENT_SET_NO": 999, "REV_AT_EPOCH": 95261, "BSTAR": 0.0010782417, "MEAN_MOTION_DOT": 1.519e-05, "MEAN_MOTION_DDOT": 0}, "tle": {"line1": "1 30671U 99025AQD 25351.46177126  .00001519  00000+0  10782-2 0  9997", "line2": "2 30671  99.2523  56.1898 0125850  20.3538 353.9446 13.95475762952614"}}, "geometry": {"type": "Point", "coordinates": [69.34856817695986, -52.27632997371535]}}, {"type": "Feature", "properties": {"norad_id": 30673, "name": "FENGYUN 1C DEB", "group": "fengyun-1c-debris", "lat": -67.41846463638701, "lon": 63.68756458000256, "alt_km": 925.8937740028068, "timestamp": "2025-12-18T10:51:26.084811+00:00", "meta": {"OBJECT_NAME": "FENGYUN 1C DEB", "OBJECT_ID": "1999-025AQF", "EPOCH": "2025-12-17T20:04:38.664768", "MEAN_MOTION": 14.03457441, "ECCENTRICITY": 0.00527856, "INCLINATION": 98.9192, "RA_OF_ASC_NODE": 40.8986, "ARG_OF_PERICENTER": 128.5705, "MEAN_ANOMALY": 292.4201, "EPHEMERIS_TYPE": 0, "CLASSIFICATION_TYPE": "U", "NORAD_CAT_ID": 30673, "ELEMENT_SET_NO": 999, "REV_AT_EPOCH": 96603, "BSTAR": -1.6222037e-05, "MEAN_MOTION_DOT": -6.9e-07, "MEAN_MOTION_DDOT": 0}, "tle": {"line1": "1 30673U 99025AQF 25351.83655862 -.00000069  00000+0 -16222-4 0  9996", "line2": "2 30673  98.9192  40.8986 0052785 128.5705 292.4201 14.03457441966036"}}, "geometry": {"type": "Point", "coordinates": [63.68756458000256, -67.41846463638701]}}, {"type": "Feature", "properties": {"norad_id": 30674, "name": "FENGYUN 1C DEB", "group": "fengyun-1c-debris", "lat": 0.8333756306341283, "lon": 155.93551988201443, "alt_km": 576.2786378162809, "timestamp": "2025-12-18T10:51:26.084822+00:00", "meta": {"OBJECT_NAME": "FENGYUN 1C DEB", "OBJECT_ID": "1999-025AQG", "EPOCH": "2025-12-17T10:46:55.160256", "MEAN_MOTION": 14.96382044, "ECCENTRICITY": 0.00255122, "INCLINATION": 98.938, "RA_OF_ASC_NODE": 154.9222, "ARG_OF_PERICENTER": 288.2496, "MEAN_ANOMALY": 71.5946, "EPHEMERIS_TYPE": 0, "CLASSIFICATION_TYPE": "U", "NORAD_CAT_ID": 30674, "ELEMENT_SET_NO": 999, "REV_AT_EPOCH": 97422, "BSTAR": 0.0051672989, "MEAN_MOTION_DOT": 0.00059308, "MEAN_MOTION_DDOT": 0}, "tle": {"line1": "1 30674U 99025AQG 25351.44924954  .00059308  00000+0  51673-2 0  9990", "line2": "2 30674  98.9380 154.9222 0025512 288.2496  71.5946 14.96382044974225"}}, "geometry": {"type": "Point", "coordinates": [155.93551988201443, 0.8333756306341283]}}, {"type": "Feature", "properties": {"norad_id": 30675, "name": "FENGYUN 1C DEB", "group": "fengyun-1c-debris", "lat": 78.28705077814567, "lon": -60.40149749103936, "alt_km": 770.6004436230096, "timestamp": "2025-12-18T10:51:26.084832+00:00", "meta": {"OBJECT_NAME": "FENGYUN 1C DEB", "OBJECT_ID": "1999-025AQH", "EPOCH": "2025-12-17T16:36:40.362048", "MEAN_MOTION": 14.27442076, "ECCENTRICITY": 0.00539797, "INCLINATION": 98.7549, "RA_OF_ASC_NODE": 70.8257, "ARG_OF_PERICENTER": 155.059, "MEAN_ANOMALY": 358.6716, "EPHEMERIS_TYPE": 0, "CLASSIFICATION_TYPE": "U", "NORAD_CAT_ID": 30675, "ELEMENT_SET_NO": 999, "REV_AT_EPOCH": 96962, "BSTAR": 0.0012608217, "MEAN_MOTION_DOT": 3.099e-05, "MEAN_MOTION_DDOT": 0}, "tle": {"line1": "1 30675U 99025AQH 25351.69213382  .00003099  00000+0  12608-2 0  9995", "line2": "2 30675  98.7549  70.8257 0053979 155.0590 358.6716 14.27442076969627"}}, "geometry": {"type": "Point", "coordinates": [-60.40149749103936, 78.28705077814567]}}]}